[{"OBJECT_NAME":"STARLINK-35765","OBJECT_ID":"2025-294M","EPOCH":"2026-03-09T22:03:21.206016","MEAN_MOTION":15.27612034,"ECCENTRICITY":0.00016604,"INCLINATION":43.0031,"RA_OF_ASC_NODE":36.8289,"ARG_OF_PERICENTER":239.2086,"MEAN_ANOMALY":120.8602,"EPHEMERIS_TYPE":0,"CLASSIFICATION_TYPE":"U","NORAD_CAT_ID":67041,"ELEMENT_SET_NO":999,"REV_AT_EPOCH":1483,"BSTAR":0.0013153954,"MEAN_MOTION_DOT":0.00036148,"MEAN_MOTION_DDOT":0},{"OBJECT_NAME":"OBJECT N","OBJECT_ID":"2019-093N","EPOCH":"2026-03-09T21:41:56.087232","MEAN_MOTION":15.29897693,"ECCENTRICITY":0.0006278,"INCLINATION":98.0505,"RA_OF_ASC_NODE":226.9456,"ARG_OF_PERICENTER":33.3806,"MEAN_ANOMALY":326.7828,"EPHEMERIS_TYPE":0,"CLASSIFICATION_TYPE":"U","NORAD_CAT_ID":44891,"ELEMENT_SET_NO":999,"REV_AT_EPOCH":33957,"BSTAR":0.0010567776,"MEAN_MOTION_DOT":0.00030617,"MEAN_MOTION_DDOT":0}]
